{"type": "FeatureCollection", "features": [ {"type": "Feature", "properties": {"norad_id": 31092, "name": "FENGYUN 1C DEB", "group": "fengyun-1c-debris", "lat": -13.861681718634415, "lon": 105.38584141445587, "alt_km": 1297.8937615024724, "timestamp": "2025-12-13T03:42:11.553479+00:00", "meta": {"OBJECT_NAME": "FENGYUN 1C DEB", "OBJECT_ID": "1999-025BGN", "EPOCH": "2025-11-15T07:00:52.552224", "MEAN_MOTION": 13.46401433, "ECCENTRICITY": 0.03278725, "INCLINATION": 99.7115, "RA_OF_ASC_NODE": 75.9227, "ARG_OF_PERICENTER": 204.4209, "MEAN_ANOMALY": 154.1084, "EPHEMERIS_TYPE": 0, "CLASSIFICATION_TYPE": "U", "NORAD_CAT_ID": 31092, "ELEMENT_SET_NO": 999, "REV_AT_EPOCH": 91512, "BSTAR": 0.0042000132, "MEAN_MOTION_DOT": 3.457e-05, "MEAN_MOTION_DDOT": 0}, "tle": {"line1": "1 31092U 99025BGN 25319.29227491  .00003457  00000+0  42000-2 0  9992", "line2": "2 31092  99.7115  75.9227 0327872 204.4209 154.1084 13.46401433915121"}}, "geometry": {"type": "Point", "coordinates": [105.38584141445587, -13.861681718634415]}}, {"type": "Feature", "properties": {"norad_id": 31093, "name": "FENGYUN 1C DEB", "group": "fengyun-1c-debris", "lat": -10.823396769215432, "lon": 4.459982551191208, "alt_km": 834.2891111447643, "timestamp": "2025-12-13T03:42:11.553489+00:00", "meta": {"OBJECT_NAME": "FENGYUN 1C DEB", "OBJECT_ID": "1999-025BGP", "EPOCH": "2025-12-12T00:40:42.308544", "MEAN_MOTION": 13.80631235, "ECCENTRICITY": 0.02082019, "INCLINATION": 98.5948, "RA_OF_ASC_NODE": 185.0918, "ARG_OF_PERICENTER": 225.1214, "MEAN_ANOMALY": 133.2872, "EPHEMERIS_TYPE": 0, "CLASSIFICATION_TYPE": "U", "NORAD_CAT_ID": 31093, "ELEMENT_SET_NO": 999, "REV_AT_EPOCH": 94497, "BSTAR": 0.00063492544, "MEAN_MOTION_DOT": 7.45e-06, "MEAN_MOTION_DDOT": 0}, "tle": {"line1": "1 31093U 99025BGP 25346.02826746  .00000745  00000+0  63493-3 0  9999", "line2": "2 31093  98.5948 185.0918 0208201 225.1214 133.2872 13.80631235944974"}}, "geometry": {"type": "Point", "coordinates": [4.459982551191208, -10.823396769215432]}}, {"type": "Feature", "properties": {"norad_id": 31094, "name": "FENGYUN 1C DEB", "group": "fengyun-1c-debris", "lat": -12.558523613815302, "lon": -143.01214434054344, "alt_km": 849.9912299908447, "timestamp": "2025-12-13T03:42:11.553499+00:00", "meta": {"OBJECT_NAME": "FENGYUN 1C DEB", "OBJECT_ID": "1999-025BGQ", "EPOCH": "2025-12-12T02:04:19.594560", "MEAN_MOTION": 14.02038873, "ECCENTRICITY": 0.01064654, "INCLINATION": 98.856, "RA_OF_ASC_NODE": 213.9601, "ARG_OF_PERICENTER": 48.8046, "MEAN_ANOMALY": 312.224, "EPHEMERIS_TYPE": 0, "CLASSIFICATION_TYPE": "U", "NORAD_CAT_ID": 31094, "ELEMENT_SET_NO": 999, "REV_AT_EPOCH": 95610, "BSTAR": 0.002208045, "MEAN_MOTION_DOT": 3.5e-05, "MEAN_MOTION_DDOT": 0}, "tle": {"line1": "1 31094U 99025BGQ 25346.08633790  .00003500  00000+0  22080-2 0  9999", "line2": "2 31094  98.8560 213.9601 0106465  48.8046 312.2240 14.02038873956100"}}, "geometry": {"type": "Point", "coordinates": [-143.01214434054344, -12.558523613815302]}}, {"type": "Feature", "properties": {"norad_id": 31095, "name": "FENGYUN 1C DEB", "group": "fengyun-1c-debris", "lat": -55.391536193917396, "lon": 142.12743557336293, "alt_km": 1374.4556258619123, "timestamp": "2025-12-13T03:42:11.553509+00:00", "meta": {"OBJECT_NAME": "FENGYUN 1C DEB", "OBJECT_ID": "1999-025BGR", "EPOCH": "2025-12-12T04:07:18.342048", "MEAN_MOTION": 13.06666155, "ECCENTRICITY": 0.04999928, "INCLINATION": 98.5615, "RA_OF_ASC_NODE": 128.732, "ARG_OF_PERICENTER": 193.2225, "MEAN_ANOMALY": 165.5369, "EPHEMERIS_TYPE": 0, "CLASSIFICATION_TYPE": "U", "NORAD_CAT_ID": 31095, "ELEMENT_SET_NO": 999, "REV_AT_EPOCH": 89440, "BSTAR": 0.00096149832, "MEAN_MOTION_DOT": 5.52e-06, "MEAN_MOTION_DDOT": 0}, "tle": {"line1": "1 31095U 99025BGR 25346.17174007  .00000552  00000+0  96150-3 0  9995", "line2": "2 31095  98.5615 128.7320 0499992 193.2225 165.5369 13.06666155894402"}}, "geometry": {"type": "Point", "coordinates": [142.12743557336293, -55.391536193917396]}}, {"type": "Feature", "properties": {"norad_id": 31097, "name": "FENGYUN 1C DEB", "group": "fengyun-1c-debris", "lat": 78.39918237149728, "lon": -20.617710172415407, "alt_km": 738.7332956604268, "timestamp": "2025-12-13T03:42:11.553519+00:00", "meta": {"OBJECT_NAME": "FENGYUN 1C DEB", "OBJECT_ID": "1999-025BGT", "EPOCH": "2025-12-09T14:39:53.425728", "MEAN_MOTION": 14.46886925, "ECCENTRICITY": 0.0015062, "INCLINATION": 98.8581, "RA_OF_ASC_NODE": 106.243, "ARG_OF_PERICENTER": 279.3966, "MEAN_ANOMALY": 91.9398, "EPHEMERIS_TYPE": 0, "CLASSIFICATION_TYPE": "U", "NORAD_CAT_ID": 31097, "ELEMENT_SET_NO": 999, "REV_AT_EPOCH": 96993, "BSTAR": 0.0040814, "MEAN_MOTION_DOT": 0.00014813, "MEAN_MOTION_DDOT": 0}, "tle": {"line1": "1 31097U 99025BGT 25343.61103502  .00014813  00000+0  40814-2 0  9995", "line2": "2 31097  98.8581 106.2430 0015062 279.3966  91.9398 14.46886925969931"}}, "geometry": {"type": "Point", "coordinates": [-20.617710172415407, 78.39918237149728]}}, {"type": "Feature", "properties": {"norad_id": 31098, "name": "FENGYUN 1C DEB", "group": "fengyun-1c-debris", "lat": -27.34384943026982, "lon": 109.76046665270434, "alt_km": 725.359892973127, "timestamp": "2025-12-13T03:42:11.553529+00:00", "meta": {"OBJECT_NAME": "FENGYUN 1C DEB", "OBJECT_ID": "1999-025BGU", "EPOCH": "2025-12-12T06:19:24.736800", "MEAN_MOTION": 14.51506292, "ECCENTRICITY": 0.00147058, "INCLINATION": 98.8704, "RA_OF_ASC_NODE": 104.1889, "ARG_OF_PERICENTER": 250.4543, "MEAN_ANOMALY": 109.5062, "EPHEMERIS_TYPE": 0, "CLASSIFICATION_TYPE": "U", "NORAD_CAT_ID": 31098, "ELEMENT_SET_NO": 999, "REV_AT_EPOCH": 96950, "BSTAR": 0.0050474884, "MEAN_MOTION_DOT": 0.00020216, "MEAN_MOTION_DDOT": 0}, "tle": {"line1": "1 31098U 99025BGU 25346.26348075  .00020216  00000+0  50475-2 0  9994", "line2": "2 31098  98.8704 104.1889 0014705 250.4543 109.5062 14.51506292969507"}}, "geometry": {"type": "Point", "coordinates": [109.76046665270434, -27.34384943026982]}}, {"type": "Feature", "properties": {"norad_id": 31099, "name": "FENGYUN 1C DEB", "group": "fengyun-1c-debris", "lat": 55.638640544411444, "lon": 72.95165483401762, "alt_km": 834.7158192522238, "timestamp": "2025-12-13T03:42:11.553539+00:00", "meta": {"OBJECT_NAME": "FENGYUN 1C DEB", "OBJECT_ID": "1999-025BGV", "EPOCH": "2025-12-12T04:18:00.471168", "MEAN_MOTION": 14.27920703, "ECCENTRICITY": 0.00626993, "INCLINATION": 98.9385, "RA_OF_ASC_NODE": 238.646, "ARG_OF_PERICENTER": 283.0643, "MEAN_ANOMALY": 230.6358, "EPHEMERIS_TYPE": 0, "CLASSIFICATION_TYPE": "U", "NORAD_CAT_ID": 31099, "ELEMENT_SET_NO": 999, "REV_AT_EPOCH": 97463, "BSTAR": 0.00047038954, "MEAN_MOTION_DOT": 1.143e-05, "MEAN_MOTION_DDOT": 0}, "tle": {"line1": "1 31099U 99025BGV 25346.17917212  .00001143  00000+0  47039-3 0  9991", "line2": "2 31099  98.9385 238.6460 0062699 283.0643 230.6358 14.27920703974634"}}, "geometry": {"type": "Point", "coordinates": [72.95165483401762, 55.638640544411444]}}, {"type": "Feature", "properties": {"norad_id": 31146, "name": "FENGYUN 1C DEB", "group": "fengyun-1c-debris", "lat": -16.94471234600877, "lon": -79.28477501718095, "alt_km": 956.6189419015564, "timestamp": "2025-12-13T03:42:11.553549+00:00", "meta": {"OBJECT_NAME": "FENGYUN 1C DEB", "OBJECT_ID": "1999-025BGY", "EPOCH": "2025-12-11T13:06:02.441376", "MEAN_MOTION": 14.27700726, "ECCENTRICITY": 0.02125393, "INCLINATION": 99.0409, "RA_OF_ASC_NODE": 276.2699, "ARG_OF_PERICENTER": 170.4839, "MEAN_ANOMALY": 190.0467, "EPHEMERIS_TYPE": 0, "CLASSIFICATION_TYPE": "U", "NORAD_CAT_ID": 31146, "ELEMENT_SET_NO": 999, "REV_AT_EPOCH": 96748, "BSTAR": 0.00051322029, "MEAN_MOTION_DOT": 1.559e-05, "MEAN_MOTION_DDOT": 0}, "tle": {"line1": "1 31146U 99025BGY 25345.54586159  .00001559  00000+0  51322-3 0  9997", "line2": "2 31146  99.0409 276.2699 0212539 170.4839 190.0467 14.27700726967480"}}, "geometry": {"type": "Point", "coordinates": [-79.28477501718095, -16.94471234600877]}}, {"type": "Feature", "properties": {"norad_id": 31148, "name": "FENGYUN 1C DEB", "group": "fengyun-1c-debris", "lat": 3.8652435876166034, "lon": 53.342142512096316, "alt_km": 806.994984186641, "timestamp": "2025-12-13T03:42:11.553559+00:00", "meta": {"OBJECT_NAME": "FENGYUN 1C DEB", "OBJECT_ID": "1999-025BHA", "EPOCH": "2025-12-10T15:00:25.932096", "MEAN_MOTION": 14.43336097, "ECCENTRICITY": 0.0136621, "INCLINATION": 98.8655, "RA_OF_ASC_NODE": 230.106, "ARG_OF_PERICENTER": 56.9202, "MEAN_ANOMALY": 304.5019, "EPHEMERIS_TYPE": 0, "CLASSIFICATION_TYPE": "U", "NORAD_CAT_ID": 31148, "ELEMENT_SET_NO": 999, "REV_AT_EPOCH": 97500, "BSTAR": 0.001247, "MEAN_MOTION_DOT": 4.658e-05, "MEAN_MOTION_DDOT": 0}, "tle": {"line1": "1 31148U 99025BHA 25344.62530014  .00004658  00000+0  12470-2 0  9999", "line2": "2 31148  98.8655 230.1060 0136621  56.9202 304.5019 14.43336097975008"}}, "geometry": {"type": "Point", "coordinates": [53.342142512096316, 3.8652435876166034]}}, {"type": "Feature", "properties": {"norad_id": 31150, "name": "FENGYUN 1C DEB", "group": "fengyun-1c-debris", "lat": -60.34385935982884, "lon": 160.22370050581142, "alt_km": 855.8229303186654, "timestamp": "2025-12-13T03:42:11.553569+00:00", "meta": {"OBJECT_NAME": "FENGYUN 1C DEB", "OBJECT_ID": "1999-025BHC", "EPOCH": "2025-12-12T06:27:42.155424", "MEAN_MOTION": 14.12732923, "ECCENTRICITY": 0.00152502, "INCLINATION": 98.686, "RA_OF_ASC_NODE": 354.9395, "ARG_OF_PERICENTER": 160.7902, "MEAN_ANOMALY": 261.7448, "EPHEMERIS_TYPE": 0, "CLASSIFICATION_TYPE": "U", "NORAD_CAT_ID": 31150, "ELEMENT_SET_NO": 999, "REV_AT_EPOCH": 96290, "BSTAR": 0.0002347459, "MEAN_MOTION_DOT": 3.93e-06, "MEAN_MOTION_DDOT": 0}, "tle": {"line1": "1 31150U 99025BHC 25346.26923791  .00000393  00000+0  23475-3 0  9992", "line2": "2 31150  98.6860 354.9395 0015250 160.7902 261.7448 14.12732923962907"}}, "geometry": {"type": "Point", "coordinates": [160.22370050581142, -60.34385935982884]}}]}